{
  "type": "FeatureCollection",
  "features": [
    {
      "type": "Feature",
      "properties": {
        "norad_id": 66896,
        "name": "STARLINK-35791",
        "group": "last-30-days",
        "lat": -50.69206962035574,
        "lon": -56.064147794724065,
        "alt_km": 312.5258977209469,
        "timestamp": "2025-12-15T22:44:27.662457+00:00",
        "meta_object_name": "STARLINK-35791",
        "meta_object_id": "2025-283U",
        "meta_epoch": "2025-12-15T08:04:48.714816",
        "meta_mean_motion": 15.88687597,
        "meta_eccentricity": 4.129e-05,
        "meta_inclination": 53.1548,
        "meta_ra_of_asc_node": 60.6966,
        "meta_arg_of_pericenter": 30.6407,
        "meta_mean_anomaly": 329.4643,
        "meta_ephemeris_type": 0,
        "meta_classification_type": "U",
        "meta_norad_cat_id": 66896,
        "meta_element_set_no": 999,
        "meta_rev_at_epoch": 286,
        "meta_bstar": -0.0016576254,
        "meta_mean_motion_dot": -0.00453565,
        "meta_mean_motion_ddot": 0,
        "tle_line1": "1 66896U 25283U   25349.33667494 -.00453565  00000+0 -16576-2 0  9996",
        "tle_line2": "2 66896  53.1548  60.6966 0000412  30.6407 329.4643 15.88687597  2864"
      },
      "geometry": {
        "type": "Point",
        "coordinates": [
          -56.064147794724065,
          -50.69206962035574
        ]
      }
    },
    {
      "type": "Feature",
      "properties": {
        "norad_id": 66897,
        "name": "STARLINK-36079",
        "group": "last-30-days",
        "lat": -52.136976211002846,
        "lon": -47.71424561793777,
        "alt_km": 312.1628342838594,
        "timestamp": "2025-12-15T22:44:27.662468+00:00",
        "meta_object_name": "STARLINK-36079",
        "meta_object_id": "2025-283V",
        "meta_epoch": "2025-12-15T08:03:28.135584",
        "meta_mean_motion": 15.88733906,
        "meta_eccentricity": 3.099e-05,
        "meta_inclination": 53.1549,
        "meta_ra_of_asc_node": 60.6905,
        "meta_arg_of_pericenter": 314.4103,
        "meta_mean_anomaly": 45.6898,
        "meta_ephemeris_type": 0,
        "meta_classification_type": "U",
        "meta_norad_cat_id": 66897,
        "meta_element_set_no": 999,
        "meta_rev_at_epoch": 286,
        "meta_bstar": -0.0016941017,
        "meta_mean_motion_dot": -0.00464059,
        "meta_mean_motion_ddot": 0,
        "tle_line1": "1 66897U 25283V   25349.33574231 -.00464059  00000+0 -16941-2 0  9999",
        "tle_line2": "2 66897  53.1549  60.6905 0000309 314.4103  45.6898 15.88733906  2865"
      },
      "geometry": {
        "type": "Point",
        "coordinates": [
          -47.71424561793777,
          -52.136976211002846
        ]
      }
    },
    {
      "type": "Feature",
      "properties": {
        "norad_id": 66898,
        "name": "STARLINK-36065",
        "group": "last-30-days",
        "lat": -52.637456153022946,
        "lon": -43.26148840563124,
        "alt_km": 312.43538296162296,
        "timestamp": "2025-12-15T22:44:27.662478+00:00",
        "meta_object_name": "STARLINK-36065",
        "meta_object_id": "2025-283W",
        "meta_epoch": "2025-12-15T08:02:45.955968",
        "meta_mean_motion": 15.88739645,
        "meta_eccentricity": 4.694e-05,
        "meta_inclination": 53.1545,
        "meta_ra_of_asc_node": 60.6866,
        "meta_arg_of_pericenter": 8.0467,
        "meta_mean_anomaly": 352.0567,
        "meta_ephemeris_type": 0,
        "meta_classification_type": "U",
        "meta_norad_cat_id": 66898,
        "meta_element_set_no": 999,
        "meta_rev_at_epoch": 286,
        "meta_bstar": -0.0017836193,
        "meta_mean_motion_dot": -0.00487437,
        "meta_mean_motion_ddot": 0,
        "tle_line1": "1 66898U 25283W   25349.33525412 -.00487437  00000+0 -17836-2 0  9996",
        "tle_line2": "2 66898  53.1545  60.6866 0000469   8.0467 352.0567 15.88739645  2868"
      },
      "geometry": {
        "type": "Point",
        "coordinates": [
          -43.26148840563124,
          -52.637456153022946
        ]
      }
    },
    {
      "type": "Feature",
      "properties": {
        "norad_id": 66899,
        "name": "STARLINK-36064",
        "group": "last-30-days",
        "lat": -52.96477788682487,
        "lon": -38.77179541429238,
        "alt_km": 312.22708168696863,
        "timestamp": "2025-12-15T22:44:27.662490+00:00",
        "meta_object_name": "STARLINK-36064",
        "meta_object_id": "2025-283X",
        "meta_epoch": "2025-12-15T08:02:06.045216",
        "meta_mean_motion": 15.88774535,
        "meta_eccentricity": 4.255e-05,
        "meta_inclination": 53.1544,
        "meta_ra_of_asc_node": 60.6835,
        "meta_arg_of_pericenter": 359.8221,
        "meta_mean_anomaly": 0.2804,
        "meta_ephemeris_type": 0,
        "meta_classification_type": "U",
        "meta_norad_cat_id": 66899,
        "meta_element_set_no": 999,
        "meta_rev_at_epoch": 286,
        "meta_bstar": -0.0017199414,
        "meta_mean_motion_dot": -0.00471703,
        "meta_mean_motion_ddot": 0,
        "tle_line1": "1 66899U 25283X   25349.33479219 -.00471703  00000+0 -17199-2 0  9991",
        "tle_line2": "2 66899  53.1544  60.6835 0000425 359.8221   0.2804 15.88774535  2864"
      },
      "geometry": {
        "type": "Point",
        "coordinates": [
          -38.77179541429238,
          -52.96477788682487
        ]
      }
    },
    {
      "type": "Feature",
      "properties": {
        "norad_id": 66900,
        "name": "STARLINK-36074",
        "group": "last-30-days",
        "lat": -53.12219337047533,
        "lon": -34.12784342257436,
        "alt_km": 312.1513223881675,
        "timestamp": "2025-12-15T22:44:27.662500+00:00",
        "meta_object_name": "STARLINK-36074",
        "meta_object_id": "2025-283Y",
        "meta_epoch": "2025-12-15T08:01:24.313152",
        "meta_mean_motion": 15.88796215,
        "meta_eccentricity": 4.15e-05,
        "meta_inclination": 53.1546,
        "meta_ra_of_asc_node": 60.6802,
        "meta_arg_of_pericenter": 355.1558,
        "meta_mean_anomaly": 4.9464,
        "meta_ephemeris_type": 0,
        "meta_classification_type": "U",
        "meta_norad_cat_id": 66900,
        "meta_element_set_no": 999,
        "meta_rev_at_epoch": 286,
        "meta_bstar": -0.0017337971,
        "meta_mean_motion_dot": -0.00475799,
        "meta_mean_motion_ddot": 0,
        "tle_line1": "1 66900U 25283Y   25349.33430918 -.00475799  00000+0 -17338-2 0  9991",
        "tle_line2": "2 66900  53.1546  60.6802 0000415 355.1558   4.9464 15.88796215  2866"
      },
      "geometry": {
        "type": "Point",
        "coordinates": [
          -34.12784342257436,
          -53.12219337047533
        ]
      }
    },
    {
      "type": "Feature",
      "properties": {
        "norad_id": 66901,
        "name": "STARLINK-36043",
        "group": "last-30-days",
        "lat": -53.111468471490646,
        "lon": -30.09065577877011,
        "alt_km": 312.3359521725479,
        "timestamp": "2025-12-15T22:44:27.662510+00:00",
        "meta_object_name": "STARLINK-36043",
        "meta_object_id": "2025-283Z",
        "meta_epoch": "2025-12-15T08:00:47.643264",
        "meta_mean_motion": 15.88808295,
        "meta_eccentricity": 6.318e-05,
        "meta_inclination": 53.1548,
        "meta_ra_of_asc_node": 60.6773,
        "meta_arg_of_pericenter": 19.7306,
        "meta_mean_anomaly": 340.3744,
        "meta_ephemeris_type": 0,
        "meta_classification_type": "U",
        "meta_norad_cat_id": 66901,
        "meta_element_set_no": 999,
        "meta_rev_at_epoch": 286,
        "meta_bstar": -0.0017970213,
        "meta_mean_motion_dot": -0.00492535,
        "meta_mean_motion_ddot": 0,
        "tle_line1": "1 66901U 25283Z   25349.33388476 -.00492535  00000+0 -17970-2 0  9992",
        "tle_line2": "2 66901  53.1548  60.6773 0000631  19.7306 340.3744 15.88808295  2860"
      },
      "geometry": {
        "type": "Point",
        "coordinates": [
          -30.09065577877011,
          -53.111468471490646
        ]
      }
    },
    {
      "type": "Feature",
      "properties": {
        "norad_id": 66902,
        "name": "STARLINK-35983",
        "group": "last-30-days",
        "lat": -52.91036442264921,
        "lon": -25.142618337661766,
        "alt_km": 312.12690065138213,
        "timestamp": "2025-12-15T22:44:27.662522+00:00",
        "meta_object_name": "STARLINK-35983",
        "meta_object_id": "2025-283AA",
        "meta_epoch": "2025-12-15T08:00:03.223296",
        "meta_mean_motion": 15.88830626,
        "meta_eccentricity": 4.025e-05,
        "meta_inclination": 53.1546,
        "meta_ra_of_asc_node": 60.6741,
        "meta_arg_of_pericenter": 4.2078,
        "meta_mean_anomaly": 355.8951,
        "meta_ephemeris_type": 0,
        "meta_classification_type": "U",
        "meta_norad_cat_id": 66902,
        "meta_element_set_no": 999,
        "meta_rev_at_epoch": 286,
        "meta_bstar": -0.0017907228,
        "meta_mean_motion_dot": -0.00491398,
        "meta_mean_motion_ddot": 0,
        "tle_line1": "1 66902U 25283AA  25349.33337064 -.00491398  00000+0 -17907-2 0  9996",
        "tle_line2": "2 66902  53.1546  60.6741 0000402   4.2078 355.8951 15.88830626  2869"
      },
      "geometry": {
        "type": "Point",
        "coordinates": [
          -25.142618337661766,
          -52.91036442264921
        ]
      }
    }
  ]
}